[{"OBJECT_NAME":"OBJECT A","OBJECT_ID":"2024-203A","EPOCH":"2026-03-09T23:31:20.812800","MEAN_MOTION":15.27300571,"ECCENTRICITY":0.00108989,"INCLINATION":97.4288,"RA_OF_ASC_NODE":139.5608,"ARG_OF_PERICENTER":322.6893,"MEAN_ANOMALY":37.3588,"EPHEMERIS_TYPE":0,"CLASSIFICATION_TYPE":"U","NORAD_CAT_ID":61869,"ELEMENT_SET_NO":999,"REV_AT_EPOCH":7380,"BSTAR":0.00061472876,"MEAN_MOTION_DOT":0.00016411,"MEAN_MOTION_DDOT":0},{"OBJECT_NAME":"STARLINK-32622","OBJECT_ID":"2024-207R","EPOCH":"2026-03-09T22:22:17.427360","MEAN_MOTION":15.27602488,"ECCENTRICITY":8.951e-5,"INCLINATION":42.9991,"RA_OF_ASC_NODE":279.983,"ARG_OF_PERICENTER":273.3347,"MEAN_ANOMALY":86.7402,"EPHEMERIS_TYPE":0,"CLASSIFICATION_TYPE":"U","NORAD_CAT_ID":61927,"ELEMENT_SET_NO":999,"REV_AT_EPOCH":7476,"BSTAR":0.0010789444,"MEAN_MOTION_DOT":0.00029567,"MEAN_MOTION_DDOT":0}]
